IRIDIUM 116             
1 43072U 17083C   25317.35119177  .00000029  00000+0  34261-5 0  9998
2 43072  86.3982  52.2152 0002041 105.1036 255.0385 14.34220122413236
IRIDIUM 130             
1 43073U 17083D   25317.52877519  .00000531  00000+0  18259-3 0  9994
2 43073  86.3989  52.3954 0001789 100.2134 259.9264 14.34223310413206
IRIDIUM 151             
1 43074U 17083E   25317.50340664  .00000567  00000+0  19525-3 0  9995
2 43074  86.3984  52.2046 0002059  99.6100 260.5328 14.34218099413227
IRIDIUM 134             
1 43075U 17083F   25317.33216425  .00000351  00000+0  11820-3 0  9995
2 43075  86.3985  52.2813 0001822  98.5776 261.5627 14.34219595413163
IRIDIUM 137             
1 43076U 17083G   25317.55415493  .00000431  00000+0  14700-3 0  9995
2 43076  86.3987  52.2769 0002351 108.6258 251.5193 14.34220314413261
IRIDIUM 141             
1 43077U 17083H   25317.54781285  .00000291  00000+0  96981-4 0  9996
2 43077  86.3982  52.1224 0002170  92.1735 267.9709 14.34219560413263
IRIDIUM 153             
1 43078U 17083J   25317.43021859  .00000086  00000+0  23467-4 0  9990
2 43078  86.4003  20.6614 0002214  85.6939 274.4510 14.34221360414359
IRIDIUM 131             
1 43079U 17083K   25317.67466262  .00000621  00000+0  21455-3 0  9997
2 43079  86.3991  52.2414 0002092  94.6796 265.4638 14.34221727413211
